[{"OBJECT_NAME":"ONEWEB-0229","OBJECT_ID":"2021-045N","EPOCH":"2026-06-02T16:29:09.270240","MEAN_MOTION":13.15548701,"ECCENTRICITY":0.0001847,"INCLINATION":87.9005,"RA_OF_ASC_NODE":262.0782,"ARG_OF_PERICENTER":99.3928,"MEAN_ANOMALY":260.7411,"EPHEMERIS_TYPE":0,"CLASSIFICATION_TYPE":"U","NORAD_CAT_ID":48779,"ELEMENT_SET_NO":999,"REV_AT_EPOCH":24250,"BSTAR":0.00020159,"MEAN_MOTION_DOT":8.9e-07,"MEAN_MOTION_DDOT":0.0},{"OBJECT_NAME":"ONEWEB-0228","OBJECT_ID":"2021-045P","EPOCH":"2026-06-02T17:17:15.528768","MEAN_MOTION":13.15549497,"ECCENTRICITY":0.0001819,"INCLINATION":87.9011,"RA_OF_ASC_NODE":262.0629,"ARG_OF_PERICENTER":99.995,"MEAN_ANOMALY":260.1386,"EPHEMERIS_TYPE":0,"CLASSIFICATION_TYPE":"U","NORAD_CAT_ID":48780,"ELEMENT_SET_NO":999,"REV_AT_EPOCH":24242,"BSTAR":-0.00044689,"MEAN_MOTION_DOT":-1.55e-06,"MEAN_MOTION_DDOT":0.0},{"OBJECT_NAME":"ONEWEB-0232","OBJECT_ID":"2021-045Q","EPOCH":"2026-06-02T16:40:33.987648","MEAN_MOTION":13.15550126,"ECCENTRICITY":0.0001878,"INCLINATION":87.9013,"RA_OF_ASC_NODE":262.0697,"ARG_OF_PERICENTER":101.103,"MEAN_ANOMALY":259.0311,"EPHEMERIS_TYPE":0,"CLASSIFICATION_TYPE":"U","NORAD_CAT_ID":48781,"ELEMENT_SET_NO":999,"REV_AT_EPOCH":24274,"BSTAR":0.00013884,"MEAN_MOTION_DOT":6.5e-07,"MEAN_MOTION_DDOT":0.0},{"OBJECT_NAME":"ONEWEB-0231","OBJECT_ID":"2021-045R","EPOCH":"2026-06-02T07:01:00.031008","MEAN_MOTION":13.15547813,"ECCENTRICITY":0.0001643,"INCLINATION":87.9005,"RA_OF_ASC_NODE":262.1633,"ARG_OF_PERICENTER":99.6331,"MEAN_ANOMALY":260.4985,"EPHEMERIS_TYPE":0,"CLASSIFICATION_TYPE":"U","NORAD_CAT_ID":48782,"ELEMENT_SET_NO":999,"REV_AT_EPOCH":24238,"BSTAR":0.00058219,"MEAN_MOTION_DOT":2.32e-06,"MEAN_MOTION_DDOT":0.0},{"OBJECT_NAME":"ONEWEB-0234","OBJECT_ID":"2021-045S","EPOCH":"2026-06-02T17:03:11.005920","MEAN_MOTION":13.15549729,"ECCENTRICITY":0.0002348,"INCLINATION":87.9003,"RA_OF_ASC_NODE":262.0611,"ARG_OF_PERICENTER":120.1747,"MEAN_ANOMALY":239.9616,"EPHEMERIS_TYPE":0,"CLASSIFICATION_TYPE":"U","NORAD_CAT_ID":48783,"ELEMENT_SET_NO":999,"REV_AT_EPOCH":24257,"BSTAR":3.3572e-05,"MEAN_MOTION_DOT":2.5e-07,"MEAN_MOTION_DDOT":0.0},{"OBJECT_NAME":"ONEWEB-0238","OBJECT_ID":"2021-045T","EPOCH":"2026-06-02T17:03:34.574112","MEAN_MOTION":13.15550303,"ECCENTRICITY":0.0002114,"INCLINATION":87.9013,"RA_OF_ASC_NODE":262.0552,"ARG_OF_PERICENTER":111.7136,"MEAN_ANOMALY":248.4219,"EPHEMERIS_TYPE":0,"CLASSIFICATION_TYPE":"U","NORAD_CAT_ID":48784,"ELEMENT_SET_NO":999,"REV_AT_EPOCH":24247,"BSTAR":-0.00028691000000000003,"MEAN_MOTION_DOT":-9.5e-07,"MEAN_MOTION_DDOT":0.0},{"OBJECT_NAME":"ONEWEB-0240","OBJECT_ID":"2021-045U","EPOCH":"2026-06-02T17:34:10.293312","MEAN_MOTION":13.15549324,"ECCENTRICITY":0.0001665,"INCLINATION":87.9011,"RA_OF_ASC_NODE":262.0614,"ARG_OF_PERICENTER":106.6025,"MEAN_ANOMALY":253.5288,"EPHEMERIS_TYPE":0,"CLASSIFICATION_TYPE":"U","NORAD_CAT_ID":48785,"ELEMENT_SET_NO":999,"REV_AT_EPOCH":24250,"BSTAR":2.7734e-05,"MEAN_MOTION_DOT":2.3e-07,"MEAN_MOTION_DDOT":0.0},{"OBJECT_NAME":"ONEWEB-0246","OBJECT_ID":"2021-045V","EPOCH":"2026-06-02T17:26:12.458976","MEAN_MOTION":13.15547806,"ECCENTRICITY":0.0001906,"INCLINATION":87.9007,"RA_OF_ASC_NODE":262.0671,"ARG_OF_PERICENTER":97.1605,"MEAN_ANOMALY":262.9742,"EPHEMERIS_TYPE":0,"CLASSIFICATION_TYPE":"U","NORAD_CAT_ID":48786,"ELEMENT_SET_NO":999,"REV_AT_EPOCH":24237,"BSTAR":-0.00013397000000000002,"MEAN_MOTION_DOT":-3.8e-07,"MEAN_MOTION_DDOT":0.0},{"OBJECT_NAME":"ONEWEB-0210","OBJECT_ID":"2021-045W","EPOCH":"2026-06-02T16:49:41.742048","MEAN_MOTION":13.15550257,"ECCENTRICITY":0.0001522,"INCLINATION":87.901,"RA_OF_ASC_NODE":262.0693,"ARG_OF_PERICENTER":74.0252,"MEAN_ANOMALY":286.1045,"EPHEMERIS_TYPE":0,"CLASSIFICATION_TYPE":"U","NORAD_CAT_ID":48787,"ELEMENT_SET_NO":999,"REV_AT_EPOCH":24241,"BSTAR":-0.00020842,"MEAN_MOTION_DOT":-6.6e-07,"MEAN_MOTION_DDOT":0.0},{"OBJECT_NAME":"ONEWEB-0214","OBJECT_ID":"2021-045X","EPOCH":"2026-06-02T17:02:14.210016","MEAN_MOTION":13.15548267,"ECCENTRICITY":0.0002002,"INCLINATION":87.9009,"RA_OF_ASC_NODE":262.0642,"ARG_OF_PERICENTER":89.2898,"MEAN_ANOMALY":270.8462,"EPHEMERIS_TYPE":0,"CLASSIFICATION_TYPE":"U","NORAD_CAT_ID":48788,"ELEMENT_SET_NO":999,"REV_AT_EPOCH":24238,"BSTAR":-0.00020885,"MEAN_MOTION_DOT":-6.6e-07,"MEAN_MOTION_DDOT":0.0},{"OBJECT_NAME":"ONEWEB-0221","OBJECT_ID":"2021-045Y","EPOCH":"2026-06-02T17:12:30.159072","MEAN_MOTION":13.15547234,"ECCENTRICITY":0.0001735,"INCLINATION":87.9008,"RA_OF_ASC_NODE":262.0716,"ARG_OF_PERICENTER":100.5473,"MEAN_ANOMALY":259.5852,"EPHEMERIS_TYPE":0,"CLASSIFICATION_TYPE":"U","NORAD_CAT_ID":48789,"ELEMENT_SET_NO":999,"REV_AT_EPOCH":24247,"BSTAR":-0.00028327,"MEAN_MOTION_DOT":-9.4e-07,"MEAN_MOTION_DDOT":0.0},{"OBJECT_NAME":"ONEWEB-0213","OBJECT_ID":"2021-045Z","EPOCH":"2026-06-02T16:56:31.125984","MEAN_MOTION":13.15550251,"ECCENTRICITY":0.0001646,"INCLINATION":87.9008,"RA_OF_ASC_NODE":262.0771,"ARG_OF_PERICENTER":96.6456,"MEAN_ANOMALY":263.4862,"EPHEMERIS_TYPE":0,"CLASSIFICATION_TYPE":"U","NORAD_CAT_ID":48790,"ELEMENT_SET_NO":999,"REV_AT_EPOCH":24253,"BSTAR":-0.00029743000000000006,"MEAN_MOTION_DOT":-9.9e-07,"MEAN_MOTION_DDOT":0.0},{"OBJECT_NAME":"ONEWEB-0212","OBJECT_ID":"2021-045AA","EPOCH":"2026-06-02T16:23:27.911616","MEAN_MOTION":13.15549466,"ECCENTRICITY":0.0001904,"INCLINATION":87.9007,"RA_OF_ASC_NODE":262.0759,"ARG_OF_PERICENTER":101.5613,"MEAN_ANOMALY":258.5731,"EPHEMERIS_TYPE":0,"CLASSIFICATION_TYPE":"U","NORAD_CAT_ID":48791,"ELEMENT_SET_NO":999,"REV_AT_EPOCH":24252,"BSTAR":0.00027931,"MEAN_MOTION_DOT":1.18e-06,"MEAN_MOTION_DDOT":0.0},{"OBJECT_NAME":"ONEWEB-0227","OBJECT_ID":"2021-045AB","EPOCH":"2026-06-02T16:22:19.113888","MEAN_MOTION":13.15547972,"ECCENTRICITY":0.0001821,"INCLINATION":87.9011,"RA_OF_ASC_NODE":262.0767,"ARG_OF_PERICENTER":98.8733,"MEAN_ANOMALY":261.2603,"EPHEMERIS_TYPE":0,"CLASSIFICATION_TYPE":"U","NORAD_CAT_ID":48792,"ELEMENT_SET_NO":999,"REV_AT_EPOCH":24247,"BSTAR":0.00039691,"MEAN_MOTION_DOT":1.62e-06,"MEAN_MOTION_DDOT":0.0},{"OBJECT_NAME":"ONEWEB-0226","OBJECT_ID":"2021-045AC","EPOCH":"2026-06-02T16:13:11.515872","MEAN_MOTION":13.15548607,"ECCENTRICITY":0.0001715,"INCLINATION":87.9006,"RA_OF_ASC_NODE":262.0832,"ARG_OF_PERICENTER":91.966,"MEAN_ANOMALY":268.1666,"EPHEMERIS_TYPE":0,"CLASSIFICATION_TYPE":"U","NORAD_CAT_ID":48793,"ELEMENT_SET_NO":999,"REV_AT_EPOCH":24244,"BSTAR":0.00025224000000000004,"MEAN_MOTION_DOT":1.08e-06,"MEAN_MOTION_DDOT":0.0},{"OBJECT_NAME":"ONEWEB-0224","OBJECT_ID":"2021-045AD","EPOCH":"2026-06-02T17:10:12.764064","MEAN_MOTION":13.15550159,"ECCENTRICITY":0.0001769,"INCLINATION":87.8998,"RA_OF_ASC_NODE":262.1102,"ARG_OF_PERICENTER":128.1858,"MEAN_ANOMALY":231.9432,"EPHEMERIS_TYPE":0,"CLASSIFICATION_TYPE":"U","NORAD_CAT_ID":48794,"ELEMENT_SET_NO":999,"REV_AT_EPOCH":24237,"BSTAR":-0.00031767000000000004,"MEAN_MOTION_DOT":-1.07e-06,"MEAN_MOTION_DDOT":0.0}]