ONEWEB-0229             
1 48779U 21045N   26153.68691285  .00000089  00000+0  20159-3 0  9995
2 48779  87.9005 262.0782 0001847  99.3928 260.7411 13.15548701242502
ONEWEB-0228             
1 48780U 21045P   26153.72031862 -.00000155  00000+0 -44689-3 0  9991
2 48780  87.9011 262.0629 0001819  99.9950 260.1386 13.15549497242420
ONEWEB-0232             
1 48781U 21045Q   26153.69483782  .00000065  00000+0  13884-3 0  9991
2 48781  87.9013 262.0697 0001878 101.1030 259.0311 13.15550126242749
ONEWEB-0231             
1 48782U 21045R   26153.29236147  .00000232  00000+0  58219-3 0  9996
2 48782  87.9005 262.1633 0001643  99.6331 260.4985 13.15547813242389
ONEWEB-0234             
1 48783U 21045S   26153.71054405  .00000025  00000+0  33572-4 0  9995
2 48783  87.9003 262.0611 0002348 120.1747 239.9616 13.15549729242578
ONEWEB-0238             
1 48784U 21045T   26153.71081683 -.00000095  00000+0 -28691-3 0  9998
2 48784  87.9013 262.0552 0002114 111.7136 248.4219 13.15550303242476
ONEWEB-0240             
1 48785U 21045U   26153.73206358  .00000023  00000+0  27734-4 0  9996
2 48785  87.9011 262.0614 0001665 106.6025 253.5288 13.15549324242502
ONEWEB-0246             
1 48786U 21045V   26153.72653309 -.00000038  00000+0 -13397-3 0  9995
2 48786  87.9007 262.0671 0001906  97.1605 262.9742 13.15547806242374
ONEWEB-0210             
1 48787U 21045W   26153.70117757 -.00000066  00000+0 -20842-3 0  9990
2 48787  87.9010 262.0693 0001522  74.0252 286.1045 13.15550257242412
ONEWEB-0214             
1 48788U 21045X   26153.70988669 -.00000066  00000+0 -20885-3 0  9996
2 48788  87.9009 262.0642 0002002  89.2898 270.8462 13.15548267242380
ONEWEB-0221             
1 48789U 21045Y   26153.71701573 -.00000094  00000+0 -28327-3 0  9995
2 48789  87.9008 262.0716 0001735 100.5473 259.5852 13.15547234242470
ONEWEB-0213             
1 48790U 21045Z   26153.70591581 -.00000099  00000+0 -29743-3 0  9990
2 48790  87.9008 262.0771 0001646  96.6456 263.4862 13.15550251242535
ONEWEB-0212             
1 48791U 21045AA  26153.68296194  .00000118  00000+0  27931-3 0  9997
2 48791  87.9007 262.0759 0001904 101.5613 258.5731 13.15549466242524
ONEWEB-0227             
1 48792U 21045AB  26153.68216567  .00000162  00000+0  39691-3 0  9999
2 48792  87.9011 262.0767 0001821  98.8733 261.2603 13.15547972242471
ONEWEB-0226             
1 48793U 21045AC  26153.67582773  .00000108  00000+0  25224-3 0  9991
2 48793  87.9006 262.0832 0001715  91.9660 268.1666 13.15548607242442
ONEWEB-0224             
1 48794U 21045AD  26153.71542551 -.00000107  00000+0 -31767-3 0  9997
2 48794  87.8998 262.1102 0001769 128.1858 231.9432 13.15550159242370
